{
  "norad_id": 64095,
  "name": "COSMOS 2588",
  "history": [
    {
      "epoch": "2026-03-28T17:12:20.979072Z",
      "apogee_km": 480.88379635051115,
      "perigee_km": 473.65134452869734,
      "latitude_deg": 6.087769188076143e-05,
      "longitude_deg": -53.48484834178278,
      "height_km": 479.45635902581256,
      "semi_major_axis_km": 6855.404570439604,
      "eccentricity": 0.0005275,
      "inclination_deg": 72.9728,
      "raan_deg": 30.7359,
      "arg_perigee_deg": 277.5478,
      "mean_anomaly_deg": 82.5119,
      "mean_motion_rev_day": 15.29512841
    }
  ]
}